[{"OBJECT_NAME":"STARLINK-31202","OBJECT_ID":"2024-038V","EPOCH":"2026-03-09T05:25:10.529184","MEAN_MOTION":15.27581543,"ECCENTRICITY":0.00011255,"INCLINATION":43.0011,"RA_OF_ASC_NODE":25.6466,"ARG_OF_PERICENTER":255.0733,"MEAN_ANOMALY":104.9994,"EPHEMERIS_TYPE":0,"CLASSIFICATION_TYPE":"U","NORAD_CAT_ID":59042,"ELEMENT_SET_NO":999,"REV_AT_EPOCH":11479,"BSTAR":-5.5995255e-5,"MEAN_MOTION_DOT":-1.803e-5,"MEAN_MOTION_DDOT":0},{"OBJECT_NAME":"TRANSPORTER-1 OBJECT AA","OBJECT_ID":"2021-006AA","EPOCH":"2026-03-09T22:58:14.761920","MEAN_MOTION":15.29982294,"ECCENTRICITY":0.00086604,"INCLINATION":97.2381,"RA_OF_ASC_NODE":112.457,"ARG_OF_PERICENTER":185.709,"MEAN_ANOMALY":174.4054,"EPHEMERIS_TYPE":0,"CLASSIFICATION_TYPE":"U","NORAD_CAT_ID":47437,"ELEMENT_SET_NO":999,"REV_AT_EPOCH":28414,"BSTAR":0.0002197941,"MEAN_MOTION_DOT":6.312e-5,"MEAN_MOTION_DDOT":0}]
